SAUDISAT 1C             
1 27607U 02058C   16097.16832233  .00000168  00000-0  44722-4 0  9996
2 27607  64.5566  20.8794 0074671 231.9297 127.5054 14.75116450714644
SAUDISAT 2              
1 28371U 04025F   16097.85804448  .00000105  00000-0  35092-4 0  9995
2 28371  98.0737  60.1037 0024479 250.9129 108.9443 14.54170083624428
UNISAT 3                
1 28373U 04025H   16096.82729451  .00000165  00000-0  58014-4 0  9998
2 28373  98.2894  41.9104 0070397  97.7763 263.1428 14.45272901620727
SAUDISAT 3              
1 31118U 07012B   16097.80632725  .00000051  00000-0  16468-4 0  9995
2 31118  97.7202 109.0997 0013874 224.3232 135.6868 14.68987737480941
